IXPE                    
1 49954U 21121A   24136.58334491  .00007055  00000+0  51626-3 0  9990
2 49954   0.2293 275.6738 0009693 152.8980 331.3471 14.97788629  5746
